APRIZESAT 2             
1 28366U 04025A   26160.07427163  .00000139  00000+0  56592-4 0  9994
2 28366  98.1008 326.5143 0104265 274.6382  84.2904 14.38032688150474
SAUDICOMSAT 1           
1 28369U 04025D   26159.97293083  .00000392  00000+0  10079-3 0  9996
2 28369  98.5772 169.8827 0033105  50.2128 310.1976 14.55467259162935
SAUDICOMSAT 2           
1 28370U 04025E   26159.98234137  .00000267  00000+0  80613-4 0  9997
2 28370  98.6641 171.9962 0054157 284.8764  74.6435 14.49976611158913
APRIZESAT 1             
1 28372U 04025G   26160.02410666  .00000176  00000+0  55335-4 0  9991
2 28372  98.6304 170.5275 0044592 178.4534 181.6806 14.51772843160725
NANOSAT-1               
1 28493U 04049B   26160.19212767  .00000944  00000+0  13170-3 0  9994
2 28493  98.2266 296.6582 0003246 335.9928  24.1131 14.80143663154269
SAUDICOMSAT 7           
1 31119U 07012C   26160.19591448  .00000439  00000+0  87856-4 0  9994
2 31119  98.3775 134.1642 0054789 220.5325 139.1792 14.66102575 21269
SAUDICOMSAT 6           
1 31121U 07012E   26160.15431810  .00000613  00000+0  12664-3 0  9997
2 31121  98.4095 127.5216 0071650 352.9155   7.1027 14.62548242 19014
SAUDICOMSAT 5           
1 31124U 07012H   26160.18049634  .00000503  00000+0  95219-4 0  9998
2 31124  98.3485 134.8975 0048025 149.4231 210.9788 14.68146638 22422
SAUDICOMSAT 3           
1 31125U 07012J   26159.88282882  .00000850  00000+0  14655-3 0  9997
2 31125  98.3139 135.1429 0040490  78.6411 281.9340 14.70692128 23604
SAUDICOMSAT 4           
1 31127U 07012L   26159.88759448  .00000530  00000+0  10730-3 0  9991
2 31127  98.3978 132.2889 0062102 284.7174  74.7150 14.64504046 20074
APRIZESAT 4             
1 35684U 09041D   26160.09779992  .00000574  00000+0  75109-4 0  9998
2 35684  98.1412 235.2570 0042967 349.6861  10.3466 14.83868357910162
APRIZESAT 3             
1 35686U 09041F   26160.14077701  .00001181  00000+0  10651-3 0  9990
2 35686  98.2052 312.9801 0062793  93.5826 267.2578 14.96217497915170
S-NET D                 
1 43186U 18014G   26159.55494740  .00005592  00000+0  28942-3 0  9995
2 43186  97.5367  64.3993 0009635  56.2812 303.9338 15.16591590457458
S-NET B                 
1 43187U 18014H   26160.09407463  .00004450  00000+0  23123-3 0  9991
2 43187  97.5374  64.9214 0010157  50.2358 309.9767 15.16565029457538
S-NET A                 
1 43188U 18014J   26158.69614311  .00006167  00000+0  31878-3 0  9990
2 43188  97.5380  63.7393 0010161  54.8789 305.3395 15.16591754457322
S-NET C                 
1 43189U 18014K   26159.70202485  .00005326  00000+0  27602-3 0  9995
2 43189  97.5400  64.8125 0011300  44.7747 315.4396 15.16555468456020
SALSAT                  
1 46495U 20068K   26159.90359286  .00007690  00000+0  27004-3 0  9996
2 46495  97.8856 162.4647 0008807 341.8369  18.2554 15.29680035314091
OOV-CUBE (TUBSAT-30)    
1 60240U 24128F   26159.80454764  .00002654  00000+0  20896-3 0  9994
2 60240  61.9950 254.8019 0045688 131.8693 228.6311 15.02739260104851
LPNTSAT-001 (IOD-1)     
1 68408U 26065A   26159.90570546  .00002763  00000+0  13677-3 0  9998
2 68408  97.4031  40.5903 0017515  38.3977 321.8500 15.18494182 11003
